[{"OBJECT_NAME":"OBJECT B","OBJECT_ID":"2024-153B","EPOCH":"2026-03-09T23:15:18.632160","MEAN_MOTION":15.30512917,"ECCENTRICITY":0.00113423,"INCLINATION":97.6622,"RA_OF_ASC_NODE":204.9195,"ARG_OF_PERICENTER":149.8438,"MEAN_ANOMALY":210.3457,"EPHEMERIS_TYPE":0,"CLASSIFICATION_TYPE":"U","NORAD_CAT_ID":60746,"ELEMENT_SET_NO":999,"REV_AT_EPOCH":8476,"BSTAR":0.00066193599,"MEAN_MOTION_DOT":0.00019515,"MEAN_MOTION_DDOT":0},{"OBJECT_NAME":"STARLINK-34361","OBJECT_ID":"2025-130N","EPOCH":"2026-03-09T10:26:50.063424","MEAN_MOTION":15.3021918,"ECCENTRICITY":9.235e-5,"INCLINATION":53.16,"RA_OF_ASC_NODE":89.7525,"ARG_OF_PERICENTER":79.2623,"MEAN_ANOMALY":280.8482,"EPHEMERIS_TYPE":0,"CLASSIFICATION_TYPE":"U","NORAD_CAT_ID":64450,"ELEMENT_SET_NO":999,"REV_AT_EPOCH":4183,"BSTAR":0.00079881741,"MEAN_MOTION_DOT":0.00023388,"MEAN_MOTION_DDOT":0}]
